NORAD_CAT_ID,OBJECT_NAME,OBJECT_TYPE,EPOCH,MEAN_MOTION,ECCENTRICITY,INCLINATION,RA_OF_ASC_NODE,ARG_OF_PERICENTER,MEAN_ANOMALY,BSTAR,MEAN_MOTION_DOT,MEAN_MOTION_DDOT,TLE_LINE0,TLE_LINE1,TLE_LINE2,SEMIMAJOR_AXIS,PERIOD,APOGEE,PERIGEE,DECAYED
52468.0,STARLINK-3864,PAYLOAD,2022-10-14 04:26:45,15.08845044,0.0001786,53.2164,236.9401,48.2821,311.8324,0.00021598,3.151e-05,0.0,0 STARLINK-3864,1 52468U 22049T   22287.18525415  .00003151  00000-0  21598-3 0  9992,2 52468  53.2164 236.9401 0001786  48.2821 311.8324 15.08845044 24670,6917.865,95.437,540.966,538.494,0.0
52468.0,STARLINK-3864,PAYLOAD,2022-10-15 07:28:19,15.08844623,0.0001764999999999,53.2156,231.8844,49.0654,311.0490000000001,0.00017091,2.433e-05,0.0,0 STARLINK-3864,1 52468U 22049T   22288.31133358  .00002433  00000-0  17091-3 0  9994,2 52468  53.2156 231.8844 0001765  49.0654 311.0490 15.08844623 25002,6917.866,95.437,540.952,538.51,0.0
52468.0,STARLINK-3864,PAYLOAD,2022-10-15 20:11:24,15.08840416,0.0001855999999999,53.2156,229.5058,50.8303,309.2854,2.3818e-05,9.1e-07,0.0,0 STARLINK-3864,1 52468U 22049T   22288.84125473  .00000091  00000-0  23818-4 0  9994,2 52468  53.2156 229.5058 0001856  50.8303 309.2854 15.08840416 24924,6917.879,95.438,541.028,538.46,0.0
52468.0,STARLINK-3864,PAYLOAD,2022-10-16 07:19:05,15.08852667,0.0001857,53.2165,227.4246,52.0652,308.0508,0.0001976,2.859e-05,0.0,0 STARLINK-3864,1 52468U 22049T   22289.30492833  .00002859  00000-0  19760-3 0  9997,2 52468  53.2165 227.4246 0001857  52.0652 308.0508 15.08852667 24993,6917.842,95.437,540.991,538.422,0.0
52468.0,STARLINK-3864,PAYLOAD,2022-10-16 20:02:11,15.08846917,0.0001885,53.2163,225.0453,53.1399,306.9766,0.00010037,1.31e-05,0.0,0 STARLINK-3864,1 52468U 22049T   22289.83484990  .00001310  00000-0  10037-3 0  9999,2 52468  53.2163 225.0453 0001885  53.1399 306.9766 15.08846917 25070,6917.859,95.437,541.028,538.42,0.0
52468.0,STARLINK-3864,PAYLOAD,2022-10-17 07:09:53,15.08840645,0.000173,53.2171,222.9633,52.6128,307.5022,-1.8856e-06,-3.18e-06,0.0,0 STARLINK-3864,1 52468U 22049T   22290.29853300 -.00000318  00000-0 -18856-5 0  9994,2 52468  53.2171 222.9633 0001730  52.6128 307.5022 15.08840645 25140,6917.878000000002,95.438,540.94,538.547,0.0
52468.0,STARLINK-3864,PAYLOAD,2022-10-18 11:46:50,15.0883255,0.0001835,53.2175,217.6119,50.4748,309.6406,-5.9445e-05,-1.234e-05,0.0,0 STARLINK-3864,1 52468U 22049T   22291.49086256 -.00001234  00000-0 -59445-4 0  9991,2 52468  53.2175 217.6119 0001835  50.4748 309.6406 15.08832550 25486,6917.903,95.438,541.038,538.499,0.0
52468.0,STARLINK-3864,PAYLOAD,2022-10-19 05:16:06,15.08821939,0.0001756,53.2174,214.3411,47.6544,312.4597,-2.7114e-05,-7.19e-06,0.0,0 STARLINK-3864,1 52468U 22049T   22292.21951482 -.00000719  00000-0 -27114-4 0  9999,2 52468  53.2174 214.3411 0001756  47.6544 312.4597 15.08821939 25592,6917.936,95.439,541.015,538.586,0.0
52468.0,STARLINK-3864,PAYLOAD,2022-10-20 05:06:52,15.08840162,0.0001864,53.2174,209.8808,52.7023,307.4139,0.00013704,1.894e-05,0.0,0 STARLINK-3864,1 52468U 22049T   22293.21310550  .00001894  00000-0  13704-3 0  9997,2 52468  53.2174 209.8808 0001864  52.7023 307.4139 15.08840162 25742,6917.88,95.438,541.034,538.455,0.0
52468.0,STARLINK-3864,PAYLOAD,2022-10-20 11:28:25,15.08838853,0.0001925,53.2176,208.6912,52.6001,307.5166,0.0001274,1.74e-05,0.0,0 STARLINK-3864,1 52468U 22049T   22293.47806730  .00001740  00000-0  12740-3 0  9994,2 52468  53.2176 208.6912 0001925  52.6001 307.5166 15.08838853 25622,6917.884,95.438,541.081,538.4169999999998,0.0
52468.0,STARLINK-3864,PAYLOAD,2022-10-21 03:22:16,15.08841225,0.0001927,53.2176,205.7177,53.3767,306.7402,0.00022353,3.271e-05,0.0,0 STARLINK-3864,1 52468U 22049T   22294.14046612  .00003271  00000-0  22353-3 0  9996,2 52468  53.2176 205.7177 0001927  53.3767 306.7402 15.08841225 25724,6917.877,95.437,541.075,538.409,0.0
52468.0,STARLINK-3864,PAYLOAD,2022-10-22 03:13:02,15.08858333,0.0001891,53.2176,201.2577,54.6176,305.4992,-2.8707e-06,-3.34e-06,0.0,0 STARLINK-3864,1 52468U 22049T   22295.13405773 -.00000334  00000-0 -28707-5 0  9993,2 52468  53.2176 201.2577 0001891  54.6176 305.4992 15.08858333 25871,6917.824000000001,95.436,540.998,538.381,0.0
52468.0,STARLINK-3864,PAYLOAD,2022-10-23 03:03:49,15.08854508,0.0001943,53.2175,196.7967,56.0367,304.081,4.1673e-05,3.75e-06,0.0,0 STARLINK-3864,1 52468U 22049T   22296.12765341  .00000375  00000-0  41673-4 0  9992,2 52468  53.2175 196.7967 0001943  56.0367 304.0810 15.08854508 26186,6917.8359999999975,95.437,541.045,538.357,0.0
52468.0,STARLINK-3864,PAYLOAD,2022-10-23 11:00:44,15.08862489,0.0001918,53.2175,195.31,56.7849,303.3327,0.00010337,1.358e-05,0.0,0 STARLINK-3864,1 52468U 22049T   22296.45884289  .00001358  00000-0  10337-3 0  9995,2 52468  53.2175 195.3100 0001918  56.7849 303.3327 15.08862489 26232,6917.812,95.436,541.003,538.35,0.0
52468.0,STARLINK-3864,PAYLOAD,2022-10-23 23:43:48,15.08858118,0.0001873,53.218,192.9314,56.2017,303.9154,7.6321e-05,9.27e-06,0.0,0 STARLINK-3864,1 52468U 22049T   22296.98876121  .00000927  00000-0  76321-4 0  9996,2 52468  53.2180 192.9314 0001873  56.2017 303.9154 15.08858118 26317,6917.825,95.436,540.986,538.394,0.0
52468.0,STARLINK-3864,PAYLOAD,2022-10-24 17:13:05,15.08832939,0.0002009999999999,53.2177,189.6603,56.5385,303.5799,-0.00010406,-1.944e-05,0.0,0 STARLINK-3864,1 52468U 22049T   22297.71742410 -.00001944  00000-0 -10406-3 0  9994,2 52468  53.2177 189.6603 0002010  56.5385 303.5799 15.08832939 26428,6917.901999999999,95.438,541.1569999999998,538.376,0.0
52468.0,STARLINK-3864,PAYLOAD,2022-10-24 23:34:39,15.08816253,0.0001919,53.2178,188.4712,56.084,304.0335,-0.00023772,-4.067e-05,0.0,0 STARLINK-3864,1 52468U 22049T   22297.98239949 -.00004067  00000-0 -23772-3 0  9990,2 52468  53.2178 188.4712 0001919  56.0840 304.0335 15.08816253 26305,6917.953,95.439,541.146,538.49,0.0
52468.0,STARLINK-3864,PAYLOAD,2022-10-25 17:03:53,15.08828041,0.000186,53.2173,185.1996,55.3267,304.79,-9.2546e-05,-1.76e-05,0.0,0 STARLINK-3864,1 52468U 22049T   22298.71103203 -.00001760  00000-0 -92546-4 0  9998,2 52468  53.2173 185.1996 0001860  55.3267 304.7900 15.08828041 26570,6917.917,95.438,541.069,538.495,0.0
52468.0,STARLINK-3864,PAYLOAD,2022-10-25 23:25:25,15.0883954,0.0001901,53.2173,184.0105,54.3394,305.7775,-8.5935e-06,-4.25e-06,0.0,0 STARLINK-3864,1 52468U 22049T   22298.97598555 -.00000425  00000-0 -85935-5 0  9996,2 52468  53.2173 184.0105 0001901  54.3394 305.7775 15.08839540 26618,6917.882,95.438,541.062,538.432,0.0
52468.0,STARLINK-3864,PAYLOAD,2022-10-26 08:57:43,15.08844063,0.0001913,53.2174,182.2261,55.1765,304.9407,3.4707e-05,2.64e-06,0.0,0 STARLINK-3864,1 52468U 22049T   22299.37342281  .00000264  00000-0  34707-4 0  9993,2 52468  53.2174 182.2261 0001913  55.1765 304.9407 15.08844063 26514,6917.868,95.437,541.056,538.41,0.0
52468.0,STARLINK-3864,PAYLOAD,2022-10-26 23:16:13,15.0882648,0.0001864,53.2175,179.5507,55.6014,304.5154,0.00034725,5.241e-05,0.0,0 STARLINK-3864,1 52468U 22049T   22299.96959602  .00005241  00000-0  34725-3 0  9998,2 52468  53.2175 179.5507 0001864  55.6014 304.5154 15.08826480 26769,6917.922,95.438,541.076,538.497,0.0
52468.0,STARLINK-3864,PAYLOAD,2022-10-27 08:48:31,15.08835164,0.0001916,53.2163,177.767,54.2565,305.8605,0.0002901,4.331e-05,0.0,0 STARLINK-3864,1 52468U 22049T   22300.36703669  .00004331  00000-0  29010-3 0  9995,2 52468  53.2163 177.7670 0001916  54.2565 305.8605 15.08835164 26664,6917.895,95.438,541.086,538.435,0.0
52468.0,STARLINK-3864,PAYLOAD,2022-10-27 19:56:13,15.0884872,0.0001720999999999,53.216,175.68400000000003,55.075,305.0404,0.00014843,2.076e-05,0.0,0 STARLINK-3864,1 52468U 22049T   22300.83070657  .00002076  00000-0  14843-3 0  9993,2 52468  53.2160 175.6840 0001721  55.0750 305.0404 15.08848720 26735,6917.854,95.437,540.909,538.528,0.0
52468.0,STARLINK-3864,PAYLOAD,2022-10-27 23:06:59,15.08845223,0.0001674,53.2159,175.0891,55.6601,304.4549,4.8867e-05,4.9000000000000005e-06,0.0,0 STARLINK-3864,1 52468U 22049T   22300.96318741  .00000490  00000-0  48867-4 0  9998,2 52468  53.2159 175.0891 0001674  55.6601 304.4549 15.08845223 26919,6917.864000000001,95.437,540.887,538.571,0.0
52468.0,STARLINK-3864,PAYLOAD,2022-10-28 08:39:17,15.08848245,0.0001654,53.2155,173.3045,54.1127,306.0018,9.2549e-05,1.185e-05,0.0,0 STARLINK-3864,1 52468U 22049T   22301.36062474  .00001185  00000-0  92549-4 0  9990,2 52468  53.2155 173.3045 0001654  54.1127 306.0018 15.08848245 26817,6917.855,95.437,540.864,538.576,0.0
52468.0,STARLINK-3864,PAYLOAD,2022-10-28 19:47:00,15.08843917,0.0001725,53.2158,171.2232,50.8652,309.2493,4.6093e-05,4.46e-06,0.0,0 STARLINK-3864,1 52468U 22049T   22301.82430556  .00000446  00000-0  46093-4 0  9993,2 52468  53.2158 171.2232 0001725  50.8652 309.2493 15.08843917 26880,6917.868,95.437,540.927,538.54,0.0
52468.0,STARLINK-3864,PAYLOAD,2022-10-29 02:08:32,15.08832347,0.0001714,53.2171,170.0343,57.575,302.5408,0.00033025,4.971e-05,0.0,0 STARLINK-3864,1 52468U 22049T   22302.08926931  .00004971  00000-0  33025-3 0  9996,2 52468  53.2171 170.0343 0001714  57.5750 302.5408 15.08832347 27086,6917.904,95.438,540.955,538.5830000000002,0.0
52468.0,STARLINK-3864,PAYLOAD,2022-10-29 08:30:04,15.08852014,0.0001754999999999,53.2171,168.8448,48.8179,311.2964,0.00016607,2.357e-05,0.0,0 STARLINK-3864,1 52468U 22049T   22302.35421889  .00002357  00000-0  16607-3 0  9991,2 52468  53.2171 168.8448 0001755  48.8179 311.2964 15.08852014 26963,6917.844,95.437,540.923,538.495,0.0
52468.0,STARLINK-3864,PAYLOAD,2022-10-29 21:13:09,15.08847474,0.0001696,53.217,166.4665,50.9032,309.2111,0.00010836,1.437e-05,0.0,0 STARLINK-3864,1 52468U 22049T   22302.88413991  .00001437  00000-0  10836-3 0  9990,2 52468  53.2170 166.4665 0001696  50.9032 309.2111 15.08847474 27048,6917.858,95.437,540.896,538.549,0.0
